CCSDS_OMM_VERS = 2.0
CREATION_DATE  = 
ORIGINATOR     = 

OBJECT_NAME    = ISS (ZARYA)
OBJECT_ID      = 1998-067A
CENTER_NAME    = EARTH
REF_FRAME      = TEME
TIME_SYSTEM    = UTC
MEAN_ELEMENT_THEORY = SGP/SGP4

EPOCH          = 2025-11-15T09:15:09.665856
MEAN_MOTION    = 15.49683527
ECCENTRICITY   = .0004161
INCLINATION    = 51.6327
RA_OF_ASC_NODE = 277.8788
ARG_OF_PERICENTER = 73.2410
MEAN_ANOMALY   = 286.9034

EPHEMERIS_TYPE = 0
CLASSIFICATION_TYPE = U
NORAD_CAT_ID   = 25544
ELEMENT_SET_NO = 999
REV_AT_EPOCH   = 53861
BSTAR          = .24188E-3
MEAN_MOTION_DOT = .13221E-3
MEAN_MOTION_DDOT = 0

CCSDS_OMM_VERS = 2.0
CREATION_DATE  = 
ORIGINATOR     = 

OBJECT_NAME    = CSS (TIANHE)
OBJECT_ID      = 2021-035A
CENTER_NAME    = EARTH
REF_FRAME      = TEME
TIME_SYSTEM    = UTC
MEAN_ELEMENT_THEORY = SGP/SGP4

EPOCH          = 2025-11-15T07:03:05.281632
MEAN_MOTION    = 15.61254647
ECCENTRICITY   = .000358
INCLINATION    = 41.4651
RA_OF_ASC_NODE = 183.2460
ARG_OF_PERICENTER = 32.5918
MEAN_ANOMALY   = 327.5141

EPHEMERIS_TYPE = 0
CLASSIFICATION_TYPE = U
NORAD_CAT_ID   = 48274
ELEMENT_SET_NO = 999
REV_AT_EPOCH   = 25974
BSTAR          = .35613E-3
MEAN_MOTION_DOT = .30872E-3
MEAN_MOTION_DDOT = 0

CCSDS_OMM_VERS = 2.0
CREATION_DATE  = 
ORIGINATOR     = 

OBJECT_NAME    = ISS (NAUKA)
OBJECT_ID      = 2021-066A
CENTER_NAME    = EARTH
REF_FRAME      = TEME
TIME_SYSTEM    = UTC
MEAN_ELEMENT_THEORY = SGP/SGP4

EPOCH          = 2025-11-14T05:23:38.944320
MEAN_MOTION    = 15.49650045
ECCENTRICITY   = .00041947
INCLINATION    = 51.6329
RA_OF_ASC_NODE = 283.6283
ARG_OF_PERICENTER = 68.4296
MEAN_ANOMALY   = 291.7139

EPHEMERIS_TYPE = 0
CLASSIFICATION_TYPE = U
NORAD_CAT_ID   = 49044
ELEMENT_SET_NO = 999
REV_AT_EPOCH   = 23044
BSTAR          = .24659261E-3
MEAN_MOTION_DOT = .13472E-3
MEAN_MOTION_DDOT = 0

CCSDS_OMM_VERS = 2.0
CREATION_DATE  = 
ORIGINATOR     = 

OBJECT_NAME    = CSS (WENTIAN)
OBJECT_ID      = 2022-085A
CENTER_NAME    = EARTH
REF_FRAME      = TEME
TIME_SYSTEM    = UTC
MEAN_ELEMENT_THEORY = SGP/SGP4

EPOCH          = 2025-11-14T00:20:46.425408
MEAN_MOTION    = 15.61166938
ECCENTRICITY   = .00038837
INCLINATION    = 41.4648
RA_OF_ASC_NODE = 191.0371
ARG_OF_PERICENTER = 22.4689
MEAN_ANOMALY   = 337.6319

EPHEMERIS_TYPE = 0
CLASSIFICATION_TYPE = U
NORAD_CAT_ID   = 53239
ELEMENT_SET_NO = 999
REV_AT_EPOCH   = 17384
BSTAR          = .36298215E-3
MEAN_MOTION_DOT = .31369E-3
MEAN_MOTION_DDOT = 0

CCSDS_OMM_VERS = 2.0
CREATION_DATE  = 
ORIGINATOR     = 

OBJECT_NAME    = CSS (MENGTIAN)
OBJECT_ID      = 2022-143A
CENTER_NAME    = EARTH
REF_FRAME      = TEME
TIME_SYSTEM    = UTC
MEAN_ELEMENT_THEORY = SGP/SGP4

EPOCH          = 2025-11-14T00:20:46.425408
MEAN_MOTION    = 15.61166938
ECCENTRICITY   = .00038837
INCLINATION    = 41.4648
RA_OF_ASC_NODE = 191.0371
ARG_OF_PERICENTER = 22.4689
MEAN_ANOMALY   = 337.6319

EPHEMERIS_TYPE = 0
CLASSIFICATION_TYPE = U
NORAD_CAT_ID   = 54216
ELEMENT_SET_NO = 999
REV_AT_EPOCH   = 15864
BSTAR          = .36298215E-3
MEAN_MOTION_DOT = .31369E-3
MEAN_MOTION_DDOT = 0

CCSDS_OMM_VERS = 2.0
CREATION_DATE  = 
ORIGINATOR     = 

OBJECT_NAME    = SOYUZ-MS 27
OBJECT_ID      = 2025-072A
CENTER_NAME    = EARTH
REF_FRAME      = TEME
TIME_SYSTEM    = UTC
MEAN_ELEMENT_THEORY = SGP/SGP4

EPOCH          = 2025-11-14T05:23:38.944320
MEAN_MOTION    = 15.49650045
ECCENTRICITY   = .00041947
INCLINATION    = 51.6329
RA_OF_ASC_NODE = 283.6283
ARG_OF_PERICENTER = 68.4296
MEAN_ANOMALY   = 291.7139

EPHEMERIS_TYPE = 0
CLASSIFICATION_TYPE = U
NORAD_CAT_ID   = 63520
ELEMENT_SET_NO = 999
REV_AT_EPOCH   = 2020
BSTAR          = .24659261E-3
MEAN_MOTION_DOT = .13472E-3
MEAN_MOTION_DDOT = 0

CCSDS_OMM_VERS = 2.0
CREATION_DATE  = 
ORIGINATOR     = 

OBJECT_NAME    = SHENZHOU-20 (SZ-20)
OBJECT_ID      = 2025-082A
CENTER_NAME    = EARTH
REF_FRAME      = TEME
TIME_SYSTEM    = UTC
MEAN_ELEMENT_THEORY = SGP/SGP4

EPOCH          = 2025-11-14T00:20:46.425408
MEAN_MOTION    = 15.61166938
ECCENTRICITY   = .00038837
INCLINATION    = 41.4648
RA_OF_ASC_NODE = 191.0371
ARG_OF_PERICENTER = 22.4689
MEAN_ANOMALY   = 337.6319

EPHEMERIS_TYPE = 0
CLASSIFICATION_TYPE = U
NORAD_CAT_ID   = 63632
ELEMENT_SET_NO = 999
REV_AT_EPOCH   = 25530
BSTAR          = .36298215E-3
MEAN_MOTION_DOT = .31369E-3
MEAN_MOTION_DDOT = 0

CCSDS_OMM_VERS = 2.0
CREATION_DATE  = 
ORIGINATOR     = 

OBJECT_NAME    = PROGRESS-MS 31
OBJECT_ID      = 2025-146A
CENTER_NAME    = EARTH
REF_FRAME      = TEME
TIME_SYSTEM    = UTC
MEAN_ELEMENT_THEORY = SGP/SGP4

EPOCH          = 2025-11-14T05:23:38.944320
MEAN_MOTION    = 15.49650045
ECCENTRICITY   = .00041947
INCLINATION    = 51.6329
RA_OF_ASC_NODE = 283.6283
ARG_OF_PERICENTER = 68.4296
MEAN_ANOMALY   = 291.7139

EPHEMERIS_TYPE = 0
CLASSIFICATION_TYPE = U
NORAD_CAT_ID   = 64751
ELEMENT_SET_NO = 999
REV_AT_EPOCH   = 675
BSTAR          = .24659261E-3
MEAN_MOTION_DOT = .13472E-3
MEAN_MOTION_DDOT = 0

CCSDS_OMM_VERS = 2.0
CREATION_DATE  = 
ORIGINATOR     = 

OBJECT_NAME    = TIANZHOU-9
OBJECT_ID      = 2025-149A
CENTER_NAME    = EARTH
REF_FRAME      = TEME
TIME_SYSTEM    = UTC
MEAN_ELEMENT_THEORY = SGP/SGP4

EPOCH          = 2025-11-14T00:20:46.425408
MEAN_MOTION    = 15.61166938
ECCENTRICITY   = .00038837
INCLINATION    = 41.4648
RA_OF_ASC_NODE = 191.0371
ARG_OF_PERICENTER = 22.4689
MEAN_ANOMALY   = 337.6319

EPHEMERIS_TYPE = 0
CLASSIFICATION_TYPE = U
NORAD_CAT_ID   = 64786
ELEMENT_SET_NO = 999
REV_AT_EPOCH   = 25530
BSTAR          = .36298215E-3
MEAN_MOTION_DOT = .31369E-3
MEAN_MOTION_DDOT = 0

CCSDS_OMM_VERS = 2.0
CREATION_DATE  = 
ORIGINATOR     = 

OBJECT_NAME    = CREW DRAGON 11
OBJECT_ID      = 2025-166A
CENTER_NAME    = EARTH
REF_FRAME      = TEME
TIME_SYSTEM    = UTC
MEAN_ELEMENT_THEORY = SGP/SGP4

EPOCH          = 2025-11-14T05:23:38.944320
MEAN_MOTION    = 15.49650045
ECCENTRICITY   = .00041947
INCLINATION    = 51.6329
RA_OF_ASC_NODE = 283.6283
ARG_OF_PERICENTER = 68.4296
MEAN_ANOMALY   = 291.7139

EPHEMERIS_TYPE = 0
CLASSIFICATION_TYPE = U
NORAD_CAT_ID   = 65077
ELEMENT_SET_NO = 999
REV_AT_EPOCH   = 214
BSTAR          = .24659261E-3
MEAN_MOTION_DOT = .13472E-3
MEAN_MOTION_DDOT = 0

CCSDS_OMM_VERS = 2.0
CREATION_DATE  = 
ORIGINATOR     = 

OBJECT_NAME    = DRAGON CRS-33
OBJECT_ID      = 2025-186A
CENTER_NAME    = EARTH
REF_FRAME      = TEME
TIME_SYSTEM    = UTC
MEAN_ELEMENT_THEORY = SGP/SGP4

EPOCH          = 2025-11-14T05:23:38.944320
MEAN_MOTION    = 15.49650045
ECCENTRICITY   = .00041947
INCLINATION    = 51.6329
RA_OF_ASC_NODE = 283.6283
ARG_OF_PERICENTER = 68.4296
MEAN_ANOMALY   = 291.7139

EPHEMERIS_TYPE = 0
CLASSIFICATION_TYPE = U
NORAD_CAT_ID   = 65304
ELEMENT_SET_NO = 999
REV_AT_EPOCH   = 11
BSTAR          = .24659261E-3
MEAN_MOTION_DOT = .13472E-3
MEAN_MOTION_DDOT = 0

